[{"OBJECT_NAME":"STARLINK-34990","OBJECT_ID":"2025-179K","EPOCH":"2026-03-09T15:38:25.794816","MEAN_MOTION":15.05652828,"ECCENTRICITY":0.00019326,"INCLINATION":97.6033,"RA_OF_ASC_NODE":112.9434,"ARG_OF_PERICENTER":92.026,"MEAN_ANOMALY":268.1188,"EPHEMERIS_TYPE":0,"CLASSIFICATION_TYPE":"U","NORAD_CAT_ID":65244,"ELEMENT_SET_NO":999,"REV_AT_EPOCH":3187,"BSTAR":0.00051733303,"MEAN_MOTION_DOT":7.412e-5,"MEAN_MOTION_DDOT":0},{"OBJECT_NAME":"DELTA 1 DEB","OBJECT_ID":"1972-058EG","EPOCH":"2026-03-09T15:29:57.375744","MEAN_MOTION":14.93143945,"ECCENTRICITY":0.0071537,"INCLINATION":98.4418,"RA_OF_ASC_NODE":299.7647,"ARG_OF_PERICENTER":185.1751,"MEAN_ANOMALY":174.8735,"EPHEMERIS_TYPE":0,"CLASSIFICATION_TYPE":"U","NORAD_CAT_ID":8314,"ELEMENT_SET_NO":999,"REV_AT_EPOCH":83297,"BSTAR":0.00043799,"MEAN_MOTION_DOT":4.734e-5,"MEAN_MOTION_DDOT":0}]
